STARLINK-1298_new
1 15413C 20019BF  21326.15591539  .00000233  00000-0  15621-4 0  3262
2 15413  53.0530 338.0530 0001567  54.3955 233.8670 15.06406920    10
STARLINK-1298_old
1 25413C 20019BF  21325.12550414 -.00000914  00000-0 -61255-4 0  3256
2 25413  53.0527 342.6791 0001466  56.0514  41.1639 15.06397931    10
